{
  "type": "FeatureCollection",
  "features": [
    { "type": "Feature", "geometry": { "type": "Point", "coordinates": [-6.2546, 53.3438] }, "properties": { "id": "trinity-college", "name": "Trinity College & Book of Kells", "categories": ["historic", "museum"], "summary": "16th-century university; the Book of Kells and the Long Room library.", "address": "College Green, Dublin 2", "fee": "paid", "url": "https://www.tcd.ie/visitors/book-of-kells/", "wikidata": "Q189912", "image": null } },
    { "type": "Feature", "geometry": { "type": "Point", "coordinates": [-6.2867, 53.3419] }, "properties": { "id": "guinness-storehouse", "name": "Guinness Storehouse", "categories": ["museum"], "summary": "Seven-storey brewery experience with a rooftop Gravity Bar.", "address": "St James's Gate, Dublin 8", "fee": "paid", "url": "https://www.guinness-storehouse.com/", "wikidata": null, "image": null } },
    { "type": "Feature", "geometry": { "type": "Point", "coordinates": [-6.259, 53.3382] }, "properties": { "id": "st-stephens-green", "name": "St Stephen's Green", "categories": ["parks"], "summary": "Victorian public park with lakes, bandstand and flower beds.", "address": "St Stephen's Green, Dublin 2", "fee": "free", "url": null, "wikidata": null, "image": null } },
    { "type": "Feature", "geometry": { "type": "Point", "coordinates": [-6.3097, 53.3419] }, "properties": { "id": "kilmainham-gaol", "name": "Kilmainham Gaol", "categories": ["historic", "museum"], "summary": "Former prison central to Irish independence history; guided tours.", "address": "Inchicore Rd, Dublin 8", "fee": "paid", "url": "https://kilmainhamgaolmuseum.ie/", "wikidata": null, "image": null } },
    { "type": "Feature", "geometry": { "type": "Point", "coordinates": [-6.2637, 53.3454] }, "properties": { "id": "temple-bar", "name": "Temple Bar district", "categories": ["historic", "pubs"], "summary": "Cobbled riverside quarter of pubs, galleries and nightlife.", "address": "Temple Bar, Dublin 2", "fee": "free", "url": null, "wikidata": null, "image": null } },

    { "type": "Feature", "geometry": { "type": "Point", "coordinates": [-6.2674, 53.3429] }, "properties": { "id": "dublin-castle", "name": "Dublin Castle", "categories": ["historic"], "summary": "700-year-old castle and State Apartments in the city core.", "address": "Dame St, Dublin 2", "fee": "paid", "url": "https://www.dublincastle.ie/", "wikidata": null, "image": null } },
    { "type": "Feature", "geometry": { "type": "Point", "coordinates": [-6.2712, 53.3434] }, "properties": { "id": "christ-church-cathedral", "name": "Christ Church Cathedral", "categories": ["historic"], "summary": "Medieval cathedral with a vast crypt; founded c.1030.", "address": "Christchurch Pl, Dublin 8", "fee": "paid", "url": "https://christchurchcathedral.ie/", "wikidata": null, "image": null } },
    { "type": "Feature", "geometry": { "type": "Point", "coordinates": [-6.2716, 53.3395] }, "properties": { "id": "st-patricks-cathedral", "name": "St Patrick's Cathedral", "categories": ["historic"], "summary": "Ireland's largest cathedral; associated with Jonathan Swift.", "address": "St Patrick's Close, Dublin 8", "fee": "paid", "url": "https://www.stpatrickscathedral.ie/", "wikidata": null, "image": null } },
    { "type": "Feature", "geometry": { "type": "Point", "coordinates": [-6.2634, 53.3465] }, "properties": { "id": "ha-penny-bridge", "name": "Ha'penny Bridge", "categories": ["historic"], "summary": "Cast-iron 1816 pedestrian bridge over the Liffey.", "address": "Bachelors Walk, Dublin 1", "fee": "free", "url": null, "wikidata": null, "image": null } },
    { "type": "Feature", "geometry": { "type": "Point", "coordinates": [-6.2603, 53.3497] }, "properties": { "id": "spire-of-dublin", "name": "Spire of Dublin", "categories": ["historic"], "summary": "120m stainless-steel monument on O'Connell Street.", "address": "O'Connell St, Dublin 1", "fee": "free", "url": null, "wikidata": null, "image": null } },
    { "type": "Feature", "geometry": { "type": "Point", "coordinates": [-6.2603, 53.3492] }, "properties": { "id": "gpo", "name": "GPO Witness History", "categories": ["historic", "museum"], "summary": "General Post Office; 1916 Rising HQ, now with an exhibition.", "address": "O'Connell St, Dublin 1", "fee": "paid", "url": "https://www.gpowitnesshistory.ie/", "wikidata": null, "image": null } },
    { "type": "Feature", "geometry": { "type": "Point", "coordinates": [-6.2531, 53.3486] }, "properties": { "id": "custom-house", "name": "The Custom House", "categories": ["historic"], "summary": "Neoclassical 18th-century riverside landmark by James Gandon.", "address": "Custom House Quay, Dublin 1", "fee": "free", "url": null, "wikidata": null, "image": null } },
    { "type": "Feature", "geometry": { "type": "Point", "coordinates": [-6.2735, 53.3459] }, "properties": { "id": "four-courts", "name": "Four Courts", "categories": ["historic"], "summary": "Gandon-designed courts building with a landmark dome.", "address": "Inns Quay, Dublin 7", "fee": "free", "url": null, "wikidata": null, "image": null } },
    { "type": "Feature", "geometry": { "type": "Point", "coordinates": [-6.2632, 53.3439] }, "properties": { "id": "molly-malone-statue", "name": "Molly Malone Statue", "categories": ["historic"], "summary": "Bronze statue of the fabled fishmonger of the city song.", "address": "Suffolk St, Dublin 2", "fee": "free", "url": null, "wikidata": null, "image": null } },

    { "type": "Feature", "geometry": { "type": "Point", "coordinates": [-6.2547, 53.3403] }, "properties": { "id": "national-museum-archaeology", "name": "National Museum – Archaeology", "categories": ["museum"], "summary": "Bog bodies, the Ardagh Chalice and Iron Age gold.", "address": "Kildare St, Dublin 2", "fee": "free", "url": "https://www.museum.ie/", "wikidata": null, "image": null } },
    { "type": "Feature", "geometry": { "type": "Point", "coordinates": [-6.2524, 53.3411] }, "properties": { "id": "national-gallery", "name": "National Gallery of Ireland", "categories": ["museum"], "summary": "Irish and European art incl. Caravaggio and Vermeer.", "address": "Merrion Sq W, Dublin 2", "fee": "free", "url": "https://www.nationalgallery.ie/", "wikidata": null, "image": null } },
    { "type": "Feature", "geometry": { "type": "Point", "coordinates": [-6.2537, 53.3401] }, "properties": { "id": "natural-history-museum", "name": "Natural History Museum", "categories": ["museum"], "summary": "Victorian 'Dead Zoo' of taxidermy and skeletons.", "address": "Merrion St, Dublin 2", "fee": "free", "url": "https://www.museum.ie/", "wikidata": null, "image": null } },
    { "type": "Feature", "geometry": { "type": "Point", "coordinates": [-6.2876, 53.3477] }, "properties": { "id": "collins-barracks", "name": "National Museum – Decorative Arts (Collins Barracks)", "categories": ["museum", "historic"], "summary": "Design, military history and silver in a former barracks.", "address": "Benburb St, Dublin 7", "fee": "free", "url": "https://www.museum.ie/", "wikidata": null, "image": null } },
    { "type": "Feature", "geometry": { "type": "Point", "coordinates": [-6.2497, 53.3479] }, "properties": { "id": "epic-museum", "name": "EPIC The Irish Emigration Museum", "categories": ["museum"], "summary": "Interactive museum of the Irish diaspora at CHQ.", "address": "CHQ, Custom House Quay, Dublin 1", "fee": "paid", "url": "https://epicchq.com/", "wikidata": null, "image": null } },
    { "type": "Feature", "geometry": { "type": "Point", "coordinates": [-6.2679, 53.3423] }, "properties": { "id": "chester-beatty", "name": "Chester Beatty", "categories": ["museum"], "summary": "World-class collection of manuscripts and sacred texts.", "address": "Dublin Castle, Dublin 2", "fee": "free", "url": "https://chesterbeatty.ie/", "wikidata": null, "image": null } },
    { "type": "Feature", "geometry": { "type": "Point", "coordinates": [-6.2588, 53.339] }, "properties": { "id": "little-museum-of-dublin", "name": "The Little Museum of Dublin", "categories": ["museum"], "summary": "20th-century Dublin told through donated objects.", "address": "15 St Stephen's Green, Dublin 2", "fee": "paid", "url": "https://www.littlemuseum.ie/", "wikidata": null, "image": null } },
    { "type": "Feature", "geometry": { "type": "Point", "coordinates": [-6.2989, 53.3432] }, "properties": { "id": "imma", "name": "Irish Museum of Modern Art (IMMA)", "categories": ["museum", "parks"], "summary": "Modern art in the 17th-century Royal Hospital and grounds.", "address": "Royal Hospital, Kilmainham, Dublin 8", "fee": "free", "url": "https://imma.ie/", "wikidata": null, "image": null } },
    { "type": "Feature", "geometry": { "type": "Point", "coordinates": [-6.2637, 53.3536] }, "properties": { "id": "hugh-lane-gallery", "name": "Hugh Lane Gallery", "categories": ["museum"], "summary": "City gallery incl. Francis Bacon's reconstructed studio.", "address": "Charlemont House, Parnell Sq N, Dublin 1", "fee": "free", "url": "https://www.hughlane.ie/", "wikidata": null, "image": null } },
    { "type": "Feature", "geometry": { "type": "Point", "coordinates": [-6.2718, 53.3432] }, "properties": { "id": "dublinia", "name": "Dublinia", "categories": ["museum", "historic"], "summary": "Viking and medieval Dublin experience beside the cathedral.", "address": "St Michael's Hill, Dublin 8", "fee": "paid", "url": "https://www.dublinia.ie/", "wikidata": null, "image": null } },
    { "type": "Feature", "geometry": { "type": "Point", "coordinates": [-6.2668, 53.3479] }, "properties": { "id": "leprechaun-museum", "name": "National Leprechaun Museum", "categories": ["museum"], "summary": "Storytelling museum of Irish myth and folklore.", "address": "Twilfit House, Jervis St, Dublin 1", "fee": "paid", "url": "https://www.leprechaunmuseum.ie/", "wikidata": null, "image": null } },

    { "type": "Feature", "geometry": { "type": "Point", "coordinates": [-6.2489, 53.3395] }, "properties": { "id": "merrion-square", "name": "Merrion Square Park", "categories": ["parks"], "summary": "Georgian garden square with the Oscar Wilde statue.", "address": "Merrion Sq, Dublin 2", "fee": "free", "url": null, "wikidata": null, "image": null } },
    { "type": "Feature", "geometry": { "type": "Point", "coordinates": [-6.2603, 53.336] }, "properties": { "id": "iveagh-gardens", "name": "Iveagh Gardens", "categories": ["parks"], "summary": "Secluded 'secret garden' with fountains and a maze.", "address": "Clonmel St, Dublin 2", "fee": "free", "url": null, "wikidata": null, "image": null } },
    { "type": "Feature", "geometry": { "type": "Point", "coordinates": [-6.3297, 53.3559] }, "properties": { "id": "phoenix-park", "name": "Phoenix Park", "categories": ["parks"], "summary": "One of Europe's largest walled city parks; wild deer.", "address": "Phoenix Park, Dublin 8", "fee": "free", "url": null, "wikidata": null, "image": null } },
    { "type": "Feature", "geometry": { "type": "Point", "coordinates": [-6.2635, 53.3535] }, "properties": { "id": "garden-of-remembrance", "name": "Garden of Remembrance", "categories": ["parks", "historic"], "summary": "Memorial garden to those who died for Irish freedom.", "address": "Parnell Sq E, Dublin 1", "fee": "free", "url": null, "wikidata": null, "image": null } },

    { "type": "Feature", "geometry": { "type": "Point", "coordinates": [-6.2686, 53.3441] }, "properties": { "id": "queen-of-tarts", "name": "Queen of Tarts", "categories": ["food"], "summary": "Beloved cafe for cakes, tarts and hearty breakfasts.", "address": "Cork Hill, Dame St, Dublin 2", "fee": "unknown", "url": null, "wikidata": null, "image": null } },
    { "type": "Feature", "geometry": { "type": "Point", "coordinates": [-6.2585, 53.3428] }, "properties": { "id": "avoca-suffolk-st", "name": "Avoca Cafe", "categories": ["food", "shopping"], "summary": "Cafe atop a well-known Irish food and craft store.", "address": "11-13 Suffolk St, Dublin 2", "fee": "unknown", "url": null, "wikidata": null, "image": null } },
    { "type": "Feature", "geometry": { "type": "Point", "coordinates": [-6.2637, 53.3468] }, "properties": { "id": "the-woollen-mills", "name": "The Woollen Mills", "categories": ["food"], "summary": "Riverside eatery in a historic building by the Ha'penny.", "address": "42 Lower Ormond Quay, Dublin 1", "fee": "unknown", "url": null, "wikidata": null, "image": null } },
    { "type": "Feature", "geometry": { "type": "Point", "coordinates": [-6.2599, 53.341] }, "properties": { "id": "bewleys-grafton-st", "name": "Bewley's Grafton Street", "categories": ["food", "historic"], "summary": "Landmark 1927 cafe with Harry Clarke stained glass.", "address": "78-79 Grafton St, Dublin 2", "fee": "unknown", "url": null, "wikidata": null, "image": null } },
    { "type": "Feature", "geometry": { "type": "Point", "coordinates": [-6.262, 53.3487] }, "properties": { "id": "brother-hubbard", "name": "Brother Hubbard", "categories": ["food"], "summary": "Middle-Eastern-leaning brunch and coffee spot.", "address": "153 Capel St, Dublin 1", "fee": "unknown", "url": null, "wikidata": null, "image": null } },

    { "type": "Feature", "geometry": { "type": "Point", "coordinates": [-6.2661, 53.341] }, "properties": { "id": "the-long-hall", "name": "The Long Hall", "categories": ["pubs", "historic"], "summary": "Ornate Victorian bar with mirrors and chandeliers.", "address": "51 South Great George's St, Dublin 2", "fee": "unknown", "url": null, "wikidata": null, "image": null } },
    { "type": "Feature", "geometry": { "type": "Point", "coordinates": [-6.2773, 53.3448] }, "properties": { "id": "the-brazen-head", "name": "The Brazen Head", "categories": ["pubs", "historic"], "summary": "Reputedly Ireland's oldest pub, dating from 1198.", "address": "20 Lower Bridge St, Dublin 8", "fee": "unknown", "url": null, "wikidata": null, "image": null } },
    { "type": "Feature", "geometry": { "type": "Point", "coordinates": [-6.2588, 53.3405] }, "properties": { "id": "kehoes", "name": "Kehoe's", "categories": ["pubs"], "summary": "Snug traditional pub just off Grafton Street.", "address": "9 South Anne St, Dublin 2", "fee": "unknown", "url": null, "wikidata": null, "image": null } },
    { "type": "Feature", "geometry": { "type": "Point", "coordinates": [-6.2643, 53.3436] }, "properties": { "id": "the-stags-head", "name": "The Stag's Head", "categories": ["pubs", "historic"], "summary": "Victorian pub with mahogany, marble and stained glass.", "address": "1 Dame Ct, Dublin 2", "fee": "unknown", "url": null, "wikidata": null, "image": null } },
    { "type": "Feature", "geometry": { "type": "Point", "coordinates": [-6.2565, 53.3465] }, "properties": { "id": "mulligans", "name": "Mulligan's", "categories": ["pubs", "historic"], "summary": "Storied 1782 pub famed for its pint of stout.", "address": "8 Poolbeg St, Dublin 2", "fee": "unknown", "url": null, "wikidata": null, "image": null } },
    { "type": "Feature", "geometry": { "type": "Point", "coordinates": [-6.2626, 53.3413] }, "properties": { "id": "grogans", "name": "Grogan's Castle Lounge", "categories": ["pubs"], "summary": "Artsy institution known for toasties and pints.", "address": "15 South William St, Dublin 2", "fee": "unknown", "url": null, "wikidata": null, "image": null } },

    { "type": "Feature", "geometry": { "type": "Point", "coordinates": [-6.2597, 53.3418] }, "properties": { "id": "grafton-street", "name": "Grafton Street", "categories": ["shopping"], "summary": "Pedestrian shopping street with buskers and flower sellers.", "address": "Grafton St, Dublin 2", "fee": "free", "url": null, "wikidata": null, "image": null } },
    { "type": "Feature", "geometry": { "type": "Point", "coordinates": [-6.2645, 53.3421] }, "properties": { "id": "georges-street-arcade", "name": "George's Street Arcade", "categories": ["shopping", "historic"], "summary": "Victorian covered market of vintage and independent stalls.", "address": "South Great George's St, Dublin 2", "fee": "free", "url": null, "wikidata": null, "image": null } },
    { "type": "Feature", "geometry": { "type": "Point", "coordinates": [-6.2618, 53.3421] }, "properties": { "id": "powerscourt-centre", "name": "Powerscourt Townhouse Centre", "categories": ["shopping", "historic"], "summary": "Georgian townhouse turned boutique shopping centre.", "address": "59 South William St, Dublin 2", "fee": "free", "url": null, "wikidata": null, "image": null } },
    { "type": "Feature", "geometry": { "type": "Point", "coordinates": [-6.2588, 53.3502] }, "properties": { "id": "moore-street-market", "name": "Moore Street Market", "categories": ["shopping"], "summary": "Historic open-air street market of traders and stalls.", "address": "Moore St, Dublin 1", "fee": "free", "url": null, "wikidata": null, "image": null } },
    { "type": "Feature", "geometry": { "type": "Point", "coordinates": [-6.2617, 53.3496] }, "properties": { "id": "henry-street", "name": "Henry Street", "categories": ["shopping"], "summary": "Busy high-street shopping thoroughfare off O'Connell St.", "address": "Henry St, Dublin 1", "fee": "free", "url": null, "wikidata": null, "image": null } }
  ]
}
